NORAD_CAT_ID,OBJECT_NAME,OBJECT_TYPE,EPOCH,MEAN_MOTION,ECCENTRICITY,INCLINATION,RA_OF_ASC_NODE,ARG_OF_PERICENTER,MEAN_ANOMALY,BSTAR,MEAN_MOTION_DOT,MEAN_MOTION_DDOT,TLE_LINE0,TLE_LINE1,TLE_LINE2,SEMIMAJOR_AXIS,PERIOD,APOGEE,PERIGEE,DECAYED
54157.0,STARLINK-5290,PAYLOAD,2023-04-22 02:47:24,15.08855067,0.0001205,53.2163,59.3617,78.98,281.1328,0.00037416,5.674e-05,0.0,0 STARLINK-5290,1 54157U 22141A   23112.11625702  .00005674  00000-0  37416-3 0  9991,2 54157  53.2163  59.3617 0001205  78.9800 281.1328 15.08855067 26812,6917.834,95.437,540.533,538.866,0.0
54157.0,STARLINK-5290,PAYLOAD,2023-04-23 02:38:11,15.08851075,0.000102,53.2172,54.9004,90.5442,269.5667,0.00022477,3.292e-05,0.0,0 STARLINK-5290,1 54157U 22141A   23113.10985463  .00003292  00000-0  22477-3 0  9999,2 54157  53.2172  54.9004 0001020  90.5442 269.5667 15.08851075 26967,6917.847,95.437,540.417,539.006,0.0
54157.0,STARLINK-5290,PAYLOAD,2023-04-23 05:48:57,15.0885486,0.0001153,53.2175,54.3059,91.927,268.1854,0.00028474,4.248e-05,0.0,0 STARLINK-5290,1 54157U 22141A   23113.24233324  .00004248  00000-0  28474-3 0  9991,2 54157  53.2175  54.3059 0001153  91.9270 268.1854 15.08854860 26985,6917.835,95.437,540.498,538.902,0.0
54157.0,STARLINK-5290,PAYLOAD,2023-04-24 05:39:44,15.08867475,0.0001427,53.2173,49.8445,88.8696,271.246,0.00074754,0.00011638,0.0,0 STARLINK-5290,1 54157U 22141A   23114.23592861  .00011638  00000-0  74754-3 0  9998,2 54157  53.2173  49.8445 0001427  88.8696 271.2460 15.08867475 27134,6917.796,95.436,540.649,538.674,0.0
54157.0,STARLINK-5290,PAYLOAD,2023-04-25 05:30:29,15.08884885,0.0001149,53.2173,45.3845,100.2812,259.831,0.00083172,0.0001299,0.0,0 STARLINK-5290,1 54157U 22141A   23115.22950572  .00012990  00000-0  83172-3 0  9991,2 54157  53.2173  45.3845 0001149 100.2812 259.8310 15.08884885 27285,6917.743,95.435,540.403,538.813,0.0
54157.0,STARLINK-5290,PAYLOAD,2023-04-26 03:45:56,15.08803235,0.0001053,53.2177,41.2229,93.2137,266.8976,-0.00079421,-0.00012892,0.0,0 STARLINK-5290,1 54157U 22141A   23116.15690125 -.00012892  00000-0 -79421-3 0  9994,2 54157  53.2177  41.2229 0001053  93.2137 266.8976 15.08803235 27427,6917.993,95.44,540.586,539.129,0.0
54157.0,STARLINK-5290,PAYLOAD,2023-04-26 22:50:34,15.08814236,0.0001137,53.2169,37.6543,77.1573,282.9546,-0.00022825,-3.916e-05,0.0,0 STARLINK-5290,1 54157U 22141A   23116.95178597 -.00003916  00000-0 -22825-3 0  9999,2 54157  53.2169  37.6543 0001137  77.1573 282.9546 15.08814236 27542,6917.959,95.439,540.611,539.038,0.0
54157.0,STARLINK-5290,PAYLOAD,2023-04-27 05:12:06,15.0884058,0.0001186,53.2173,36.4645,112.9512,247.1605,4.0492e-05,3.57e-06,0.0,0 STARLINK-5290,1 54157U 22141A   23117.21673766  .00000357  00000-0  40492-4 0  9992,2 54157  53.2173  36.4645 0001186 112.9512 247.1605 15.08840580 27586,6917.879,95.438,540.564,538.923,0.0
54157.0,STARLINK-5290,PAYLOAD,2023-04-28 11:24:26,15.08849226,0.0001408,53.2174,30.8171,80.3348,279.7803,0.00040636,6.187e-05,0.0,0 STARLINK-5290,1 54157U 22141A   23118.47530850  .00006187  00000-0  40636-3 0  9993,2 54157  53.2174  30.8171 0001408  80.3348 279.7803 15.08849226 27779,6917.852,95.437,540.691,538.743,0.0
54157.0,STARLINK-5290,PAYLOAD,2023-04-29 01:42:54,15.08849388,0.0001163,53.2178,28.1381,95.4064,264.7061,0.00010376,1.364e-05,0.0,0 STARLINK-5290,1 54157U 22141A   23119.07146337  .00001364  00000-0  10376-3 0  9993,2 54157  53.2178  28.1381 0001163  95.4064 264.7061 15.08849388 27865,6917.852,95.437,540.521,538.912,0.0
54157.0,STARLINK-5290,PAYLOAD,2023-04-29 17:36:45,15.08841357,0.0001188,53.2173,25.1668,92.4176,267.6952,0.00015466,2.175e-05,0.0,0 STARLINK-5290,1 54157U 22141A   23119.73386574  .00002175  00000-0  15466-3 0  9991,2 54157  53.2173  25.1668 0001188  92.4176 267.6952 15.08841357 27963,6917.876,95.437,540.563,538.919,0.0
54157.0,STARLINK-5290,PAYLOAD,2023-04-30 03:09:04,15.08847929,0.0001149,53.2176,23.3813,84.877,275.2354,0.0002923,4.368e-05,0.0,0 STARLINK-5290,1 54157U 22141A   23120.13130456  .00004368  00000-0  29230-3 0  9993,2 54157  53.2176  23.3813 0001149  84.8770 275.2354 15.08847929 28020,6917.856,95.437,540.516,538.926,0.0
54157.0,STARLINK-5290,PAYLOAD,2023-04-30 23:49:05,15.0884241,0.0001116,53.2181,19.5163,78.5235,281.5883,0.00022662,3.321e-05,0.0,0 STARLINK-5290,1 54157U 22141A   23120.99242813  .00003321  00000-0  22662-3 0  9998,2 54157  53.2181  19.5163 0001116  78.5235 281.5883 15.08842410 28152,6917.873,95.437,540.51,538.966,0.0
54157.0,STARLINK-5290,PAYLOAD,2023-05-01 02:59:51,15.08846424,0.0001106,53.2184,18.9193,89.1195,270.9923,0.00029148,4.355e-05,0.0,0 STARLINK-5290,1 54157U 22141A   23121.12490669  .00004355  00000-0  29148-3 0  9992,2 54157  53.2184  18.9193 0001106  89.1195 270.9923 15.08846424 28171,6917.861,95.437,540.491,538.961,0.0
54157.0,STARLINK-5290,PAYLOAD,2023-05-01 22:04:29,15.08842908,0.0001211,53.2175,15.3513,77.7341,282.3787,0.00011574,1.555e-05,0.0,0 STARLINK-5290,1 54157U 22141A   23121.91978763  .00001555  00000-0  11574-3 0  9998,2 54157  53.2175  15.3513 0001211  77.7341 282.3787 15.08842908 28292,6917.872,95.437,540.574,538.899,0.0
54157.0,STARLINK-5290,PAYLOAD,2023-05-02 02:50:38,15.08847091,0.0001242,53.2179,14.4582,84.4028,275.7106,0.00012414,1.689e-05,0.0,0 STARLINK-5290,1 54157U 22141A   23122.11850454  .00001689  00000-0  12414-3 0  9999,2 54157  53.2179  14.4582 0001242  84.4028 275.7106 15.08847091 28326,6917.859,95.437,540.583,538.865,0.0
54157.0,STARLINK-5290,PAYLOAD,2023-05-02 21:55:16,15.08837718,0.0001254,53.2188,10.8893,85.4968,274.6168,0.00027785,4.137e-05,0.0,0 STARLINK-5290,1 54157U 22141A   23122.91338798  .00004137  00000-0  27785-3 0  9997,2 54157  53.2188  10.8893 0001254  85.4968 274.6168 15.08837718 28442,6917.887,95.438,540.62,538.885,0.0
54157.0,STARLINK-5290,PAYLOAD,2023-05-03 09:02:58,15.08844778,9.55e-05,53.2169,8.8125,99.5263,260.5837,3.3652e-05,2.48e-06,0.0,0 STARLINK-5290,1 54157U 22141A   23123.37706144  .00000248  00000-0  33652-4 0  9992,2 54157  53.2169   8.8125 0000955  99.5263 260.5837 15.08844778 28516,6917.866,95.437,540.391,539.07,0.0
54157.0,STARLINK-5290,PAYLOAD,2023-05-03 20:10:40,15.08831689,0.0001455,53.2179,6.7294,99.1819,260.9338,-0.00014492,-2.593e-05,0.0,0 STARLINK-5290,1 54157U 22141A   23123.84075078 -.00002593  00000-0 -14492-3 0  9996,2 54157  53.2179   6.7294 0001455  99.1819 260.9338 15.08831689 28584,6917.906,95.438,540.777,538.764,0.0
54157.0,STARLINK-5290,PAYLOAD,2023-05-03 23:21:27,15.08836236,0.000115,53.218,6.1374,102.6695,257.4426,-8.215e-05,-1.595e-05,0.0,0 STARLINK-5290,1 54157U 22141A   23123.97323468 -.00001595  00000-0 -82150-4 0  9997,2 54157  53.2180   6.1374 0001150 102.6695 257.4426 15.08836236 28608,6917.892,95.438,540.552,538.961,0.0
54157.0,STARLINK-5290,PAYLOAD,2023-05-04 02:32:13,15.08835131,0.0001148,53.2176,5.5422,91.4177,268.6947,-7.1921e-05,-1.432e-05,0.0,0 STARLINK-5290,1 54157U 22141A   23124.10571586 -.00001432  00000-0 -71921-4 0  9993,2 54157  53.2176   5.5422 0001148  91.4177 268.6947 15.08835131 28624,6917.895,95.438,540.554,538.966,0.0
54157.0,STARLINK-5290,PAYLOAD,2023-05-04 20:01:27,15.0883833,0.000123,53.2173,2.2695,97.8553,262.2579,0.00012835,1.755e-05,0.0,0 STARLINK-5290,1 54157U 22141A   23124.83435050  .00001755  00000-0  12835-3 0  9992,2 54157  53.2173   2.2695 0001230  97.8553 262.2579 15.08838330 28734,6917.885,95.438,540.601,538.9,0.0
54157.0,STARLINK-5290,PAYLOAD,2023-05-04 21:36:51,15.08810808,0.0001402,53.2174,1.973,95.3414,264.7738,0.00057248,8.828e-05,0.0,0 STARLINK-5290,1 54157U 22141A   23124.90059753  .00008828  00000-0  57248-3 0  9997,2 54157  53.2174   1.9730 0001402  95.3414 264.7738 15.08810808 28746,6917.97,95.439,540.805,538.865,0.0
54157.0,STARLINK-5290,PAYLOAD,2023-05-04 23:12:13,15.08849202,0.0001163,53.2174,1.6744,94.9173,265.1952,7.2682e-05,8.69e-06,0.0,0 STARLINK-5290,1 54157U 22141A   23124.96682556  .00000869  00000-0  72682-4 0  9993,2 54157  53.2174   1.6744 0001163  94.9173 265.1952 15.08849202 28753,6917.852,95.437,540.522,538.913,0.0
54157.0,STARLINK-5290,PAYLOAD,2023-05-05 19:52:15,15.08836359,0.0001498,53.2175,357.8096,79.292,280.8241,0.00015258,2.141e-05,0.0,0 STARLINK-5290,1 54157U 22141A   23125.82795465  .00002141  00000-0  15258-3 0  9993,2 54157  53.2175 357.8096 0001498  79.2920 280.8241 15.08836359 28885,6917.892,95.438,540.793,538.72,0.0
54157.0,STARLINK-5290,PAYLOAD,2023-05-05 21:27:38,15.08838092,0.0001227,53.2165,357.5118,80.9595,279.1536,7.3808e-05,8.87e-06,0.0,0 STARLINK-5290,1 54157U 22141A   23125.89419293  .00000887  00000-0  73808-4 0  9993,2 54157  53.2165 357.5118 0001227  80.9595 279.1536 15.08838092 28898,6917.886,95.438,540.6,538.902,0.0
54157.0,STARLINK-5290,PAYLOAD,2023-05-06 00:38:24,15.08840547,0.000125,53.2178,356.9145,78.5786,281.5346,0.00016319,2.31e-05,0.0,0 STARLINK-5290,1 54157U 22141A   23126.02667202  .00002310  00000-0  16319-3 0  9990,2 54157  53.2178 356.9145 0001250  78.5786 281.5346 15.08840547 28913,6917.879,95.438,540.608,538.879,0.0
54157.0,STARLINK-5290,PAYLOAD,2023-05-07 00:29:10,15.0885353,0.0001332,53.2178,352.4513,100.6899,259.4243,-5.2395e-05,-1.122e-05,0.0,0 STARLINK-5290,1 54157U 22141A   23127.02026468 -.00001122  00000-0 -52395-4 0  9991,2 54157  53.2178 352.4513 0001332 100.6899 259.4243 15.08853530 29069,6917.839,95.437,540.625,538.783,0.0
54157.0,STARLINK-5290,PAYLOAD,2023-05-07 19:33:49,15.08837662,0.0001513,53.2183,348.879,107.8483,252.2674,-1.2912e-05,-4.93e-06,0.0,0 STARLINK-5290,1 54157U 22141A   23127.81515512 -.00000493  00000-0 -12912-4 0  9992,2 54157  53.2183 348.8790 0001513 107.8483 252.2674 15.08837662 29180,6917.888,95.438,540.799,538.706,0.0
54157.0,STARLINK-5290,PAYLOAD,2023-05-07 21:09:12,15.08838139,0.0001187,53.2169,348.5875,94.9849,265.1279,4.0262e-05,3.53e-06,0.0,0 STARLINK-5290,1 54157U 22141A   23127.88139738  .00000353  00000-0  40262-4 0  9993,2 54157  53.2169 348.5875 0001187  94.9849 265.1279 15.08838139 29199,6917.886,95.438,540.572,538.93,0.0
